[{"OBJECT_NAME":"STARLINK-35840","OBJECT_ID":"2025-280P","EPOCH":"2026-03-09T23:27:17.172576","MEAN_MOTION":14.98341894,"ECCENTRICITY":0.00027132,"INCLINATION":70.0018,"RA_OF_ASC_NODE":333.5414,"ARG_OF_PERICENTER":269.2016,"MEAN_ANOMALY":90.8832,"EPHEMERIS_TYPE":0,"CLASSIFICATION_TYPE":"U","NORAD_CAT_ID":66834,"ELEMENT_SET_NO":999,"REV_AT_EPOCH":1612,"BSTAR":0.0005359238,"MEAN_MOTION_DOT":6.309e-5,"MEAN_MOTION_DDOT":0},{"OBJECT_NAME":"IKONOS 2","OBJECT_ID":"1999-051A","EPOCH":"2026-03-09T15:19:40.153152","MEAN_MOTION":14.96976552,"ECCENTRICITY":0.0006412,"INCLINATION":98.1486,"RA_OF_ASC_NODE":313.4587,"ARG_OF_PERICENTER":157.8343,"MEAN_ANOMALY":202.3156,"EPHEMERIS_TYPE":0,"CLASSIFICATION_TYPE":"U","NORAD_CAT_ID":25919,"ELEMENT_SET_NO":999,"REV_AT_EPOCH":42402,"BSTAR":0.00024901,"MEAN_MOTION_DOT":2.801e-5,"MEAN_MOTION_DDOT":0}]
